{
    "links": {
        "self": "http://www.neowsapp.com/rest/v1/neo/3654486?api_key=iIulBulltgU6a56xZRHN4H3l9WmuAYTsLGpBGhQ2"
    },
    "id": "3654486",
    "neo_reference_id": "3654486",
    "name": "(2013 XT21)",
    "designation": "2013 XT21",
    "nasa_jpl_url": "http://ssd.jpl.nasa.gov/sbdb.cgi?sstr=3654486",
    "absolute_magnitude_h": 27.3,
    "estimated_diameter": {
        "kilometers": {
            "estimated_diameter_min": 0.0092162655,
            "estimated_diameter_max": 0.0206081961
        },
        "meters": {
            "estimated_diameter_min": 9.216265485,
            "estimated_diameter_max": 20.6081961232
        },
        "miles": {
            "estimated_diameter_min": 0.0057267201,
            "estimated_diameter_max": 0.0128053354
        },
        "feet": {
            "estimated_diameter_min": 30.2370924539,
            "estimated_diameter_max": 67.6121941689
        }
    },
    "is_potentially_hazardous_asteroid": false,
    "close_approach_data": [
        {
            "close_approach_date": "2010-01-01",
            "close_approach_date_full": "2010-Jan-01 16:20",
            "epoch_date_close_approach": 1262362800000,
            "relative_velocity": {
                "kilometers_per_second": "21.780778165",
                "kilometers_per_hour": "78410.8013939676",
                "miles_per_hour": "48721.4226772684"
            },
            "miss_distance": {
                "astronomical": "0.2708378232",
                "lunar": "105.3559132248",
                "kilometers": "40516761.466156584",
                "miles": "25175948.1508414992"
            },
            "orbiting_body": "Earth"
        },
        {
            "close_approach_date": "2013-12-11",
            "close_approach_date_full": "2013-Dec-11 23:50",
            "epoch_date_close_approach": 1386805800000,
            "relative_velocity": {
                "kilometers_per_second": "13.5556433627",
                "kilometers_per_hour": "48800.3161058971",
                "miles_per_hour": "30322.6186381337"
            },
            "miss_distance": {
                "astronomical": "0.0029118167",
                "lunar": "1.1326966963",
                "kilometers": "435601.576150429",
                "miles": "270670.2682727602"
            },
            "orbiting_body": "Earth"
        },
        {
            "close_approach_date": "2013-12-12",
            "close_approach_date_full": "2013-Dec-12 00:16",
            "epoch_date_close_approach": 1386807360000,
            "relative_velocity": {
                "kilometers_per_second": "12.5453523609",
                "kilometers_per_hour": "45163.268499406",
                "miles_per_hour": "28062.6986962003"
            },
            "miss_distance": {
                "astronomical": "0.0044119911",
                "lunar": "1.7162645379",
                "kilometers": "660024.471018957",
                "miles": "410120.1887653266"
            },
            "orbiting_body": "Moon"
        },
        {
            "close_approach_date": "2060-08-28",
            "close_approach_date_full": "2060-Aug-28 22:03",
            "epoch_date_close_approach": 2860956180000,
            "relative_velocity": {
                "kilometers_per_second": "15.625144012",
                "kilometers_per_hour": "56250.518443258",
                "miles_per_hour": "34951.8846404788"
            },
            "miss_distance": {
                "astronomical": "0.0990650818",
                "lunar": "38.5363168202",
                "kilometers": "14819925.228655766",
                "miles": "9208674.5251749308"
            },
            "orbiting_body": "Earth"
        }
    ],
    "orbital_data": {
        "orbit_id": "5",
        "orbit_determination_date": "2019-07-11 06:01:26",
        "first_observation_date": "2013-12-13",
        "last_observation_date": "2013-12-15",
        "data_arc_in_days": 2,
        "observations_used": 36,
        "orbit_uncertainty": "7",
        "minimum_orbit_intersection": ".00265584",
        "jupiter_tisserand_invariant": "3.144",
        "epoch_osculation": "2459000.5",
        "eccentricity": ".6521541255783621",
        "semi_major_axis": "2.47930288630761",
        "inclination": "3.073329244961633",
        "ascending_node_longitude": "262.7674162041663",
        "orbital_period": "1425.912269066891",
        "perihelion_distance": ".8624152804437615",
        "perihelion_argument": "130.4723402217978",
        "aphelion_distance": "4.096190492171459",
        "perihelion_time": "2459457.681462160465",
        "mean_anomaly": "244.5754188751941",
        "mean_motion": ".2524699505079522",
        "equinox": "J2000",
        "orbit_class": {
            "orbit_class_type": "APO",
            "orbit_class_description": "Near-Earth asteroid orbits which cross the Earth’s orbit similar to that of 1862 Apollo",
            "orbit_class_range": "a (semi-major axis) > 1.0 AU; q (perihelion) < 1.017 AU"
        }
    },
    "is_sentry_object": false
}